GALAXY 37 (G-37)        
1 57493U 23112A   26192.22927409  .00000055  00000+0  00000+0 0  9990
2 57493   0.0138  64.5810 0001765  50.4319 129.6622  1.00270564 10786
LUDI TANCE-4 01A        
1 57624U 23120A   26192.01229502 -.00000159  00000+0  00000+0 0  9997
2 57624  15.0894 193.3825 0001284  29.1388 160.2583  1.00276685 10786
TJS-10                  
1 58204U 23169A   26191.72780163 -.00000243  00000+0  00000+0 0  9991
2 58204   2.6022  80.2089 0004035 115.5287  87.2484  1.00275155  9773
ZHONGXING-6E            
1 58253U 23172A   26191.73864204 -.00000352  00000+0  00000+0 0  9990
2 58253   0.0182  60.2036 0002174  50.2192 199.5949  1.00266240  9899
YAOGAN-41               
1 58582U 23197A   26192.20600196 -.00000351  00000+0  00000+0 0  9992
2 58582   3.0865 313.5054 0014289 198.5406 334.4053  1.00267741  9560
OVZON-3                 
1 58698U 24003A   26191.93725278  .00000059  00000+0  00000+0 0  9999
2 58698   0.0170 112.4528 0000386 243.0972 330.4038  1.00274402  7685
INSAT-3DS               
1 58990U 24033A   26191.44052875 -.00000146  00000+0  00000+0 0  9997
2 58990   0.1046 265.7903 0001077 223.3866  39.8494  1.00271597 47304
MERAH PUTIH 2           
1 58995U 24035A   26192.01697505 -.00000350  00000+0  00000+0 0  9990
2 58995   0.0151  64.9414 0001078  47.0413 296.0135  1.00272344  8825
TJS-11                  
1 59020U 24037A   26191.80307311 -.00000350  00000+0  00000+0 0  9991
2 59020   4.1692 327.3639 0002729 139.7725 223.1695  1.00263767  8825
HULIANWAN GAOGUI-01 (H*)
1 59069U 24040A   26191.05739304  .00000167  00000+0  00000+0 0  9991
2 59069   0.0729 331.4329 0001766  71.1870 299.6615  1.00269157  7554
EUTELSAT 36D            
1 59346U 24059A   26191.28881157  .00000166  00000+0  00000+0 0  9997
2 59346   0.0048 115.6009 0000335 116.4550 195.9977  1.00271389  8372
PAKSAT-MM1              
1 59915U 24104A   26192.06641986  .00000162  00000+0  00000+0 0  9997
2 59915   0.0386 180.1788 0002003 275.8192 255.0512  1.00268534  7769
ASTRA 1P (SES-24)       
1 60086U 24115A   26191.07171265  .00000130  00000+0  00000+0 0  9993
2 60086   0.0616 332.1948 0001306 264.4649  96.3634  1.00263401  7421
GOES 19                 
1 60133U 24119A   26192.21171147 -.00000241  00000+0  00000+0 0  9990
2 60133   0.0154 267.1337 0000559 296.4217  86.5835  1.00270137  7209
ZHONGXING-3A            
1 60179U 24122A   26192.08598683 -.00000306  00000+0  00000+0 0  9999
2 60179   0.0309 127.4454 0001291  33.3612 260.7275  1.00270898  7545
TURKSAT 6A              
1 60233U 24127A   26191.71783647  .00000155  00000+0  00000+0 0  9991
2 60233   0.0676 225.5390 0002781 297.6920  65.8247  1.00272130  7256
HULIANWAN GAOGUI-02 (H*)
1 60327U 24135A   26191.95365344 -.00000166  00000+0  00000+0 0  9993
2 60327   0.0464 352.2584 0006607  14.8189  58.1362  1.00272287  7734
ZHONGXING-4A            
1 60606U 24151A   26192.20600196 -.00000354  00000+0  00000+0 0  9996
2 60606   1.2547 270.5369 0000344 300.1172 270.8425  1.00269377  6993
HULIANWAN GAOGUI-03 (H*)
1 61503U 24181A   26192.05063831 -.00000234  00000+0  00000+0 0  9995
2 61503   0.0502 355.7827 0001022  98.3948 135.9030  1.00273281  7065
DSN-3 (KIRAMEKI-3)      
1 61733U 24198A   26192.14003159 -.00000242  00000+0  00000+0 0  9994
2 61733   0.0137 328.7668 0000795 169.7589 344.9874  1.00272885  6164
KOREASAT 6A             
1 61910U 24206A   26191.94628674  .00000000  00000+0  00000+0 0  9994
2 61910   0.0196  56.2382 0000525  43.3617 285.9359  1.00267960  6072
OPTUS-X (ADS-01)        
1 62006U 24212A   26192.20183432 -.00000137  00000+0  00000+0 0  9998
2 62006   0.0173  24.9938 0002362 128.3196   4.8582  1.00270311  6003
GSAT-N2 (GSAT-20)       
1 62028U 24214A   26192.16641972 -.00000012  00000+0  00000+0 0  9999
2 62028   0.0855 264.2559 0002660 140.9665  11.7050  1.00270411  6136
SXM-9                   
1 62259U 24234A   26191.90645191 -.00000197  00000+0  00000+0 0  9999
2 62259   0.0166 338.1718 0005009 338.3047 213.5111  1.00271164  5812
TJS-12                  
1 62374U 24246A   26191.80974646 -.00000221  00000+0  00000+0 0  9997
2 62374   0.6215 301.5374 0001789  97.7113 327.5404  1.00270092  5803
NUVIEW ALPHA            
1 62455U 24252B   26192.20784913 -.00000208  00000+0  00000+0 0  9990
2 62455   0.0435  25.6046 0000944  44.7755 210.4623  1.00270411  4062
AGILA                   
1 62456U 24252C   26192.20183432 -.00000174  00000+0  00000+0 0  9992
2 62456   0.0453 147.3797 0001275   0.2118   6.3427  1.00273581  5400
NUVIEW BRAVO            
1 62457U 24252D   26192.20769303 -.00000208  00000+0  00000+0 0  9998
2 62457   0.0687 165.0069 0001539 350.4129 125.3681  1.00271196  4036
THURAYA-4               
1 62483U 25001A   26191.86086502  .00000148  00000+0  00000+0 0  9996
2 62483   0.0200  69.6171 0000222 188.5576  24.8216  1.00272917  4414
SHIJIAN-25 (SJ-25)      
1 62485U 25002A   26191.61572458 -.00000346  00000+0  00000+0 0  9993
2 62485   5.1661  61.0114 0052136 175.2648  41.1794  1.00265093  5590
TJS-14                  
1 62804U 25017A   26192.06960675  .00000124  00000+0  00000+0 0  9999
2 62804   0.7310 297.3515 0001800 293.8964 101.2043  1.00274111  5514
SPAINSAT NG I           
1 62852U 25021A   26191.05739304  .00000163  00000+0  00000+0 0  9991
2 62852   0.0169  22.9629 0000258 163.4669 151.2031  1.00273871  4210
