OBJECT_NAME,OBJECT_ID,EPOCH,MEAN_MOTION,ECCENTRICITY,INCLINATION,RA_OF_ASC_NODE,ARG_OF_PERICENTER,MEAN_ANOMALY,EPHEMERIS_TYPE,CLASSIFICATION_TYPE,NORAD_CAT_ID,ELEMENT_SET_NO,REV_AT_EPOCH,BSTAR,MEAN_MOTION_DOT,MEAN_MOTION_DDOT
GALAXY 37 (G-37),2023-112A,2026-07-11T05:30:09.281376,1.00270564,.0001765,0.0138,64.5810,50.4319,129.6622,0,U,57493,999,1078,0,.55E-6,0
LUDI TANCE-4 01A,2023-120A,2026-07-11T00:17:42.289728,1.00276685,.0001284,15.0894,193.3825,29.1388,160.2583,0,U,57624,999,1078,0,-.159E-5,0
TJS-10,2023-169A,2026-07-10T17:28:02.060832,1.00275155,.0004035,2.6022,80.2089,115.5287,87.2484,0,U,58204,999,977,0,-.243E-5,0
ZHONGXING-6E,2023-172A,2026-07-10T17:43:38.672256,1.00266240,.0002174,0.0182,60.2036,50.2192,199.5949,0,U,58253,999,989,0,-.352E-5,0
YAOGAN-41,2023-197A,2026-07-11T04:56:38.569344,1.00267741,.0014289,3.0865,313.5054,198.5406,334.4053,0,U,58582,999,956,0,-.351E-5,0
OVZON-3,2024-003A,2026-07-10T22:29:38.640192,1.00274402,.0000386,0.0170,112.4528,243.0972,330.4038,0,U,58698,999,768,0,.59E-6,0
INSAT-3DS,2024-033A,2026-07-10T10:34:21.684000,1.00271597,.00010778,0.1046,265.7903,223.3866,39.8494,0,U,58990,999,4730,0,-.146E-5,0
MERAH PUTIH 2,2024-035A,2026-07-11T00:24:26.644320,1.00272344,.0001078,0.0151,64.9414,47.0413,296.0135,0,U,58995,999,882,0,-.35E-5,0
TJS-11,2024-037A,2026-07-10T19:16:25.516704,1.00263767,.0002729,4.1692,327.3639,139.7725,223.1695,0,U,59020,999,882,0,-.35E-5,0
HULIANWAN GAOGUI-01 (HG-01),2024-040A,2026-07-10T01:22:38.758656,1.00269157,.00017662,0.0729,331.4329,71.1870,299.6615,0,U,59069,999,755,0,.167E-5,0
EUTELSAT 36D,2024-059A,2026-07-10T06:55:53.319648,1.00271389,.00003354,0.0048,115.6009,116.4550,195.9977,0,U,59346,999,837,0,.166E-5,0
PAKSAT-MM1,2024-104A,2026-07-11T01:35:38.675904,1.00268534,.0002003,0.0386,180.1788,275.8192,255.0512,0,U,59915,999,776,0,.162E-5,0
ASTRA 1P (SES-24),2024-115A,2026-07-10T01:43:15.972960,1.00263401,.00013062,0.0616,332.1948,264.4649,96.3634,0,U,60086,999,742,0,.13E-5,0
GOES 19,2024-119A,2026-07-11T05:04:51.871008,1.00270137,.0000559,0.0154,267.1337,296.4217,86.5835,0,U,60133,999,720,0,-.241E-5,0
ZHONGXING-3A,2024-122A,2026-07-11T02:03:49.262112,1.00270898,.0001291,0.0309,127.4454,33.3612,260.7275,0,U,60179,999,754,0,-.306E-5,0
TURKSAT 6A,2024-127A,2026-07-10T17:13:41.071008,1.00272130,.0002781,0.0676,225.5390,297.6920,65.8247,0,U,60233,999,725,0,.155E-5,0
HULIANWAN GAOGUI-02 (HG-02),2024-135A,2026-07-10T22:53:15.657216,1.00272287,.0006607,0.0464,352.2584,14.8189,58.1362,0,U,60327,999,773,0,-.166E-5,0
ZHONGXING-4A,2024-151A,2026-07-11T04:56:38.569344,1.00269377,.0000344,1.2547,270.5369,300.1172,270.8425,0,U,60606,999,699,0,-.354E-5,0
HULIANWAN GAOGUI-03 (HG-03),2024-181A,2026-07-11T01:12:55.149984,1.00273281,.0001022,0.0502,355.7827,98.3948,135.9030,0,U,61503,999,706,0,-.234E-5,0
DSN-3 (KIRAMEKI-3),2024-198A,2026-07-11T03:21:38.729376,1.00272885,.0000795,0.0137,328.7668,169.7589,344.9874,0,U,61733,999,616,0,-.242E-5,0
KOREASAT 6A,2024-206A,2026-07-10T22:42:39.174336,1.00267960,.0000525,0.0196,56.2382,43.3617,285.9359,0,U,61910,999,607,0,0,0
OPTUS-X (ADS-01),2024-212A,2026-07-11T04:50:38.485248,1.00270311,.0002362,0.0173,24.9938,128.3196,4.8582,0,U,62006,999,600,0,-.137E-5,0
GSAT-N2 (GSAT-20),2024-214A,2026-07-11T03:59:38.663808,1.00270411,.000266,0.0855,264.2559,140.9665,11.7050,0,U,62028,999,613,0,-.12E-6,0
SXM-9,2024-234A,2026-07-10T21:45:17.445024,1.00271164,.0005009,0.0166,338.1718,338.3047,213.5111,0,U,62259,999,581,0,-.197E-5,0
TJS-12,2024-246A,2026-07-10T19:26:02.094144,1.00270092,.0001789,0.6215,301.5374,97.7113,327.5404,0,U,62374,999,580,0,-.221E-5,0
NUVIEW ALPHA,2024-252B,2026-07-11T04:59:18.164832,1.00270411,.0000944,0.0435,25.6046,44.7755,210.4623,0,U,62455,999,406,0,-.208E-5,0
AGILA,2024-252C,2026-07-11T04:50:38.485248,1.00273581,.0001275,0.0453,147.3797,0.2118,6.3427,0,U,62456,999,540,0,-.174E-5,0
NUVIEW BRAVO,2024-252D,2026-07-11T04:59:04.677792,1.00271196,.0001539,0.0687,165.0069,350.4129,125.3681,0,U,62457,999,403,0,-.208E-5,0
THURAYA-4,2025-001A,2026-07-10T20:39:38.737728,1.00272917,.0000222,0.0200,69.6171,188.5576,24.8216,0,U,62483,999,441,0,.148E-5,0
SHIJIAN-25 (SJ-25),2025-002A,2026-07-10T14:46:38.603712,1.00265093,.0052136,5.1661,61.0114,175.2648,41.1794,0,U,62485,999,559,0,-.346E-5,0
TJS-14,2025-017A,2026-07-11T01:40:14.023200,1.00274111,.00018,0.7310,297.3515,293.8964,101.2043,0,U,62804,999,551,0,.124E-5,0
SPAINSAT NG I,2025-021A,2026-07-10T01:22:38.758656,1.00273871,.00002582,0.0169,22.9629,163.4669,151.2031,0,U,62852,999,421,0,.163E-5,0
